NORAD_CAT_ID,OBJECT_NAME,OBJECT_TYPE,EPOCH,MEAN_MOTION,ECCENTRICITY,INCLINATION,RA_OF_ASC_NODE,ARG_OF_PERICENTER,MEAN_ANOMALY,BSTAR,MEAN_MOTION_DOT,MEAN_MOTION_DDOT,TLE_LINE0,TLE_LINE1,TLE_LINE2,SEMIMAJOR_AXIS,PERIOD,APOGEE,PERIGEE,DECAYED
51803.0,STARLINK-3544,PAYLOAD,2023-01-05 16:08:29,15.08855441,0.000322,53.2155,152.1458,41.5602,318.5634,0.00030456,4.564e-05,0.0,0 STARLINK-3544,1 51803U 22017AM  23005.67256822  .00004564  00000-0  30456-3 0  9997,2 51803  53.2155 152.1458 0003220  41.5602 318.5634 15.08855441 48947,6917.833000000001,95.437,541.9259999999998,537.471,0.0
51803.0,STARLINK-3544,PAYLOAD,2023-01-06 09:37:45,15.08836419,0.0003045,53.2169,148.8753,41.9569,318.1656,-3.2133e-05,-8e-06,0.0,0 STARLINK-3544,1 51803U 22017AM  23006.40121726 -.00000800  00000-0 -32133-4 0  9999,2 51803  53.2169 148.8753 0003045  41.9569 318.1656 15.08836419 49050,6917.891,95.438,541.863,537.65,0.0
51803.0,STARLINK-3544,PAYLOAD,2023-01-06 19:10:03,15.08839504,0.0003142,53.2158,147.0909,43.9891,316.135,1.9554e-05,2.2e-07,0.0,0 STARLINK-3544,1 51803U 22017AM  23006.79865599  .00000022  00000-0  19554-4 0  9990,2 51803  53.2158 147.0909 0003142  43.9891 316.1350 15.08839504 49114,6917.882,95.438,541.9209999999998,537.573,0.0
51803.0,STARLINK-3544,PAYLOAD,2023-01-07 04:42:22,15.08849444,0.0003197,53.2164,145.3079,42.2901,317.8338,0.00010171,1.331e-05,0.0,0 STARLINK-3544,1 51803U 22017AM  23007.19609026  .00001331  00000-0  10171-3 0  9995,2 51803  53.2164 145.3079 0003197  42.2901 317.8338 15.08849444 49178,6917.852,95.437,541.928,537.505,0.0
51803.0,STARLINK-3544,PAYLOAD,2023-01-07 07:53:08,15.08849955,0.0003171,53.2164,144.7132,40.1593,319.9633,0.00020614,2.995e-05,0.0,0 STARLINK-3544,1 51803U 22017AM  23007.32857037  .00002995  00000-0  20614-3 0  9997,2 51803  53.2164 144.7132 0003171  40.1593 319.9633 15.08849955 49197,6917.85,95.437,541.909,537.521,0.0
51803.0,STARLINK-3544,PAYLOAD,2023-01-07 19:00:51,15.08828657,0.0003354,53.217,142.6321,38.0966,322.0263,4.8977e-05,4.91e-06,0.0,0 STARLINK-3544,1 51803U 22017AM  23007.79226088  .00000491  00000-0  48977-4 0  9996,2 51803  53.2170 142.6321 0003354  38.0966 322.0263 15.08828657 49262,6917.915,95.438,542.1,537.46,0.0
51803.0,STARLINK-3544,PAYLOAD,2023-01-08 10:54:42,15.08833334,0.0003087,53.2162,139.6573,36.9267,323.1937,7.225e-05,8.61e-06,0.0,0 STARLINK-3544,1 51803U 22017AM  23008.45466056  .00000861  00000-0  72250-4 0  9993,2 51803  53.2162 139.6573 0003087  36.9267 323.1937 15.08833334 49361,6917.901,95.438,541.901,537.63,0.0
51803.0,STARLINK-3544,PAYLOAD,2023-01-08 18:51:38,15.08837831,0.0003123,53.2163,138.1707,36.9311,323.1896,0.0001258,1.714e-05,0.0,0 STARLINK-3544,1 51803U 22017AM  23008.78585993  .00001714  00000-0  12580-3 0  9998,2 51803  53.2163 138.1707 0003123  36.9311 323.1896 15.08837831 49412,6917.887,95.438,541.9119999999998,537.592,0.0
51803.0,STARLINK-3544,PAYLOAD,2023-01-09 07:34:43,15.08840534,0.0003121,53.2165,135.792,35.4962,324.6238,0.0001085999999999,1.44e-05,0.0,0 STARLINK-3544,1 51803U 22017AM  23009.31577844  .00001440  00000-0  10860-3 0  9999,2 51803  53.2165 135.7920 0003121  35.4962 324.6238 15.08840534 49496,6917.879,95.438,541.903,537.585,0.0
51803.0,STARLINK-3544,PAYLOAD,2023-01-09 15:31:38,15.08842597,0.000321,53.2163,134.3052,36.8052,323.316,0.00014741,2.058e-05,0.0,0 STARLINK-3544,1 51803U 22017AM  23009.64697838  .00002058  00000-0  14741-3 0  9999,2 51803  53.2163 134.3052 0003210  36.8052 323.3160 15.08842597 49546,6917.871999999999,95.437,541.9580000000002,537.5169999999998,0.0
51803.0,STARLINK-3544,PAYLOAD,2023-01-10 07:25:30,15.08838359,0.0003159,53.2158,131.3321,38.7325,321.3893,6.2884e-05,7.12e-06,0.0,0 STARLINK-3544,1 51803U 22017AM  23010.30938074  .00000712  00000-0  62884-4 0  9991,2 51803  53.2158 131.3321 0003159  38.7325 321.3893 15.08838359 49645,6917.885,95.438,541.936,537.565,0.0
51803.0,STARLINK-3544,PAYLOAD,2023-01-10 12:11:39,15.08840617,0.000321,53.2153,130.44,41.0775,319.0459,2.7167e-05,1.44e-06,0.0,0 STARLINK-3544,1 51803U 22017AM  23010.50810047  .00000144  00000-0  27167-4 0  9996,2 51803  53.2153 130.4400 0003210  41.0775 319.0459 15.08840617 49677,6917.879,95.438,541.964,537.523,0.0
51803.0,STARLINK-3544,PAYLOAD,2023-01-10 13:47:03,15.08839863,0.0003121,53.217,130.1434,37.4055,322.7154,5.8448e-05,6.42e-06,0.0,0 STARLINK-3544,1 51803U 22017AM  23010.57434075  .00000642  00000-0  58448-4 0  9995,2 51803  53.2170 130.1434 0003121  37.4055 322.7154 15.08839863 49686,6917.880999999999,95.438,541.905,537.587,0.0
51803.0,STARLINK-3544,PAYLOAD,2023-01-11 12:02:26,15.08844826,0.000285,53.2171,125.9797,39.4691,320.6509,0.00010226,1.34e-05,0.0,0 STARLINK-3544,1 51803U 22017AM  23011.50169814  .00001340  00000-0  10226-3 0  9992,2 51803  53.2171 125.9797 0002850  39.4691 320.6509 15.08844826 49829,6917.866,95.437,541.702,537.759,0.0
51803.0,STARLINK-3544,PAYLOAD,2023-01-12 00:45:31,15.08837957,0.0003113,53.2168,123.6011,33.705,326.4139,4.230399999999999e-05,3.85e-06,0.0,0 STARLINK-3544,1 51803U 22017AM  23012.03162006  .00000385  00000-0  42304-4 0  9998,2 51803  53.2168 123.6011 0003113  33.7050 326.4139 15.08837957 49907,6917.887,95.438,541.905,537.5980000000002,0.0
51803.0,STARLINK-3544,PAYLOAD,2023-01-12 16:39:23,15.08837878,0.0002831,53.2166,120.6274,37.6643,322.4547,8.0801e-05,9.98e-06,0.0,0 STARLINK-3544,1 51803U 22017AM  23012.69402669  .00000998  00000-0  80801-4 0  9996,2 51803  53.2166 120.6274 0002831  37.6643 322.4547 15.08837878 50004,6917.887,95.438,541.71,537.793,0.0
51803.0,STARLINK-3544,PAYLOAD,2023-01-13 00:36:20,15.08827115,0.0003103,53.216,119.1406,38.978,321.1436,-7.0004e-05,-1.402e-05,0.0,0 STARLINK-3544,1 51803U 22017AM  23013.02523561 -.00001402  00000-0 -70004-4 0  9996,2 51803  53.2160 119.1406 0003103  38.9780 321.1436 15.08827115 50058,6917.92,95.438,541.931,537.638,0.0
51803.0,STARLINK-3544,PAYLOAD,2023-01-13 11:44:02,15.08839138,0.0002908999999999,53.2163,117.0606,48.6697,311.4545,-0.00019893,-3.453e-05,0.0,0 STARLINK-3544,1 51803U 22017AM  23013.48891396 -.00003453  00000-0 -19893-3 0  9996,2 51803  53.2163 117.0606 0002909  48.6697 311.4545 15.08839138 50127,6917.883000000001,95.438,541.76,537.736,0.0
51803.0,STARLINK-3544,PAYLOAD,2023-01-13 13:19:25,15.08839699,0.0002895,53.2157,116.7623,34.7821,325.336,0.00020246,2.935e-05,0.0,0 STARLINK-3544,1 51803U 22017AM  23013.55515318  .00002935  00000-0  20246-3 0  9997,2 51803  53.2157 116.7623 0002895  34.7821 325.3360 15.08839699 50136,6917.880999999999,95.438,541.749,537.744,0.0
51803.0,STARLINK-3544,PAYLOAD,2023-01-13 16:30:11,15.0884337,0.0002846,53.2156,116.1665,33.8847,326.2327,0.00024926,3.681e-05,0.0,0 STARLINK-3544,1 51803U 22017AM  23013.68763135  .00003681  00000-0  24926-3 0  9991,2 51803  53.2156 116.1665 0002846  33.8847 326.2327 15.08843370 50155,6917.87,95.437,541.7040000000001,537.766,0.0
51803.0,STARLINK-3544,PAYLOAD,2023-01-14 16:20:58,15.08854848,0.000273,53.2156,111.7052,44.8816,315.2397,0.00055561,8.569e-05,0.0,0 STARLINK-3544,1 51803U 22017AM  23014.68123604  .00008569  00000-0  55561-3 0  9992,2 51803  53.2156 111.7052 0002730  44.8816 315.2397 15.08854848 50300,6917.835,95.437,541.589,537.811,0.0
51803.0,STARLINK-3544,PAYLOAD,2023-01-15 06:39:27,15.08833622,0.0003003999999999,53.2158,109.0302,52.893,307.2336,5.1547e-05,5.32e-06,0.0,0 STARLINK-3544,1 51803U 22017AM  23015.27740713  .00000532  00000-0  51547-4 0  9997,2 51803  53.2158 109.0302 0003004  52.8930 307.2336 15.08833622 50391,6917.9,95.438,541.8430000000001,537.687,0.0
51803.0,STARLINK-3544,PAYLOAD,2023-01-15 13:01:00,15.08833088,0.0003186,53.2158,107.843,42.4591,317.6648,0.00013244,1.819e-05,0.0,0 STARLINK-3544,1 51803U 22017AM  23015.54236892  .00001819  00000-0  13244-3 0  9995,2 51803  53.2158 107.8430 0003186  42.4591 317.6648 15.08833088 50430,6917.901999999999,95.438,541.971,537.562,0.0
51803.0,STARLINK-3544,PAYLOAD,2023-01-15 16:11:46,15.08849126,0.0002165999999999,53.216,107.2445,48.408,311.7098,0.00059737,9.234e-05,0.0,0 STARLINK-3544,1 51803U 22017AM  23015.67484327  .00009234  00000-0  59737-3 0  9993,2 51803  53.2160 107.2445 0002166  48.4080 311.7098 15.08849126 50455,6917.852,95.437,541.216,538.219,0.0
51803.0,STARLINK-3544,PAYLOAD,2023-01-15 22:33:19,15.08841642,0.0002723,53.2163,106.0543,52.2798,307.8441,0.00052649,8.101e-05,0.0,0 STARLINK-3544,1 51803U 22017AM  23015.93980811  .00008101  00000-0  52649-3 0  9998,2 51803  53.2163 106.0543 0002723  52.2798 307.8441 15.08841642 50499,6917.875,95.437,541.624,537.857,0.0
51803.0,STARLINK-3544,PAYLOAD,2023-01-16 11:16:23,15.08860755,0.0002145,53.2168,103.6782,56.4107,303.709,0.00076365,0.00011893,0.0,0 STARLINK-3544,1 51803U 22017AM  23016.46972113  .00011893  00000-0  76365-3 0  9996,2 51803  53.2168 103.6782 0002145  56.4107 303.7090 15.08860755 50570,6917.816999999999,95.436,541.1659999999999,538.198,0.0
51803.0,STARLINK-3544,PAYLOAD,2023-01-16 12:51:46,15.08865087,0.0002056999999999,53.2171,103.3837,61.9439,298.1761,0.00080593,0.0001257,0.0,0 STARLINK-3544,1 51803U 22017AM  23016.53595924  .00012570  00000-0  80593-3 0  9996,2 51803  53.2171 103.3837 0002057  61.9439 298.1761 15.08865087 50589,6917.804,95.436,541.092,538.246,0.0
51803.0,STARLINK-3544,PAYLOAD,2023-01-16 16:02:32,15.08879183,0.0002168,53.2162,102.7845,53.175,306.9441,0.0012601,0.00019845,0.0,0 STARLINK-3544,1 51803U 22017AM  23016.66843539  .00019845  00000-0  12601-2 0  9994,2 51803  53.2162 102.7845 0002168  53.1750 306.9441 15.08879183 50601,6917.761,95.435,541.125,538.126,0.0
51803.0,STARLINK-3544,PAYLOAD,2023-01-16 22:24:06,15.08828161,0.0002014,53.2164,101.5947,62.8957,297.2241,-0.0005327999999999,-8.755e-05,0.0,0 STARLINK-3544,1 51803U 22017AM  23016.93340456 -.00008755  00000-0 -53280-3 0  9993,2 51803  53.2164 101.5947 0002014  62.8957 297.2241 15.08828161 50643,6917.917,95.438,541.175,538.388,0.0
